ONEWEB-0340             
1 49206U 21083W   26194.31091355 -.00000118  00000+0 -33223-3 0  9991
2 49206  87.9201 330.2604 0001791 100.0744 260.0590 13.18686965233410
ONEWEB-0341             
1 49207U 21083X   26194.31765194  .00000127  00000+0  29000-3 0  9997
2 49207  87.9194 330.2603 0002329  93.0885 267.0513 13.18688316233432
ONEWEB-0342             
1 49208U 21083Y   26194.18393461  .00000208  00000+0  48026-3 0  9996
2 49208  87.9179 269.2583 0002228 101.4373 258.7011 13.20772800240217
ONEWEB-0343             
1 49209U 21083Z   26194.32608829  .00000046  00000+0  84204-4 0  9999
2 49209  87.9184 330.2582 0002181 106.7739 253.3633 13.18687428233484
ONEWEB-0344             
1 49210U 21083AA  26194.32493440  .00000324  00000+0  85248-3 0  9999
2 49210  87.8976 315.0364 0002245  93.1591 266.9795 13.13469125234329
ONEWEB-0345             
1 49211U 21083AB  26194.31648111  .00000265  00000+0  68995-3 0  9990
2 49211  87.8983 315.0234 0002223  95.5690 264.5692 13.13469933234334
ONEWEB-0346             
1 49212U 21083AC  26194.32271468 -.00000004  00000+0 -43560-4 0  9994
2 49212  87.9177 330.2583 0001563  77.9718 282.1589 13.18687712233420
ONEWEB-0348             
1 49213U 21083AD  26194.17383871 -.00000016  00000+0 -71634-4 0  9996
2 49213  87.9191 269.2629 0002124  83.6531 276.4844 13.20771809240242
ONEWEB-0350             
1 49214U 21083AE  26193.80199135  .00000163  00000+0  41019-3 0  9998
2 49214  87.8988 315.1296 0001613 138.9530 221.1721 13.13470978234296
ONEWEB-0351             
1 49215U 21083AF  26194.16691966  .00000899  00000+0  21761-2 0  9995
2 49215  87.9174 269.2639 0003613 116.6576 243.4928 13.20828055240205
ONEWEB-0352             
1 49216U 21083AG  26194.30632130 -.00000013  00000+0 -70001-4 0  9993
2 49216  87.8972 315.0352 0002253 109.5159 250.6213 13.13469798234454
ONEWEB-0354             
1 49217U 21083AH  26194.19403595 -.00000088  00000+0 -24799-3 0  9996
2 49217  87.9181 269.2580 0002222  89.4028 270.7360 13.20770136240247
ONEWEB-0355             
1 49218U 21083AJ  26190.29849357  .00000351  00000+0  92727-3 0  9991
2 49218  87.8970 315.8320 0002043 101.5704 258.5654 13.13300713233807
ONEWEB-0357             
1 49219U 21083AK  26193.73611539  .00000041  00000+0  67980-4 0  9993
2 49219  87.9199 269.3404 0002221 105.3950 254.7428 13.20769678240184
ONEWEB-0332             
1 49279U 21090A   26194.25091966  .00000071  00000+0  15578-3 0  9999
2 49279  87.8970 284.5155 0001967 111.1808 248.9532 13.14503181231001
ONEWEB-0347             
1 49280U 21090B   26194.18055994 -.00000010  00000+0 -57119-4 0  9997
2 49280  87.9201 269.2588 0001910 103.9458 256.1888 13.20769275234473
