{"fetched_at":"2026-07-13T18:16:31.793Z","source":"https://celestrak.org/NORAD/elements/gp.php?GROUP=oneweb&FORMAT=JSON","constellation":"oneweb","records":[{"OBJECT_NAME":"ONEWEB-0340","OBJECT_ID":"2021-083W","EPOCH":"2026-07-13T07:27:42.930720","CLASSIFICATION_TYPE":"U","MEAN_MOTION":13.18686965,"ECCENTRICITY":0.00017919,"INCLINATION":87.9201,"RA_OF_ASC_NODE":330.2604,"ARG_OF_PERICENTER":100.0744,"MEAN_ANOMALY":260.059,"EPHEMERIS_TYPE":0,"NORAD_CAT_ID":49206,"ELEMENT_SET_NO":999,"REV_AT_EPOCH":23341,"BSTAR":-0.00033222506,"MEAN_MOTION_DOT":-0.00000118,"MEAN_MOTION_DDOT":0},{"OBJECT_NAME":"ONEWEB-0341","OBJECT_ID":"2021-083X","EPOCH":"2026-07-13T07:37:25.127616","CLASSIFICATION_TYPE":"U","MEAN_MOTION":13.18688316,"ECCENTRICITY":0.00023295,"INCLINATION":87.9194,"RA_OF_ASC_NODE":330.2603,"ARG_OF_PERICENTER":93.0885,"MEAN_ANOMALY":267.0513,"EPHEMERIS_TYPE":0,"NORAD_CAT_ID":49207,"ELEMENT_SET_NO":999,"REV_AT_EPOCH":23343,"BSTAR":0.00028999799,"MEAN_MOTION_DOT":0.00000127,"MEAN_MOTION_DDOT":0},{"OBJECT_NAME":"ONEWEB-0342","OBJECT_ID":"2021-083Y","EPOCH":"2026-07-13T04:24:51.950304","CLASSIFICATION_TYPE":"U","MEAN_MOTION":13.207728,"ECCENTRICITY":0.00022285,"INCLINATION":87.9179,"RA_OF_ASC_NODE":269.2583,"ARG_OF_PERICENTER":101.4373,"MEAN_ANOMALY":258.7011,"EPHEMERIS_TYPE":0,"NORAD_CAT_ID":49208,"ELEMENT_SET_NO":999,"REV_AT_EPOCH":24021,"BSTAR":0.00048025959,"MEAN_MOTION_DOT":0.00000208,"MEAN_MOTION_DDOT":0},{"OBJECT_NAME":"ONEWEB-0343","OBJECT_ID":"2021-083Z","EPOCH":"2026-07-13T07:49:34.028256","CLASSIFICATION_TYPE":"U","MEAN_MOTION":13.18687428,"ECCENTRICITY":0.00021811,"INCLINATION":87.9184,"RA_OF_ASC_NODE":330.2582,"ARG_OF_PERICENTER":106.7739,"MEAN_ANOMALY":253.3633,"EPHEMERIS_TYPE":0,"NORAD_CAT_ID":49209,"ELEMENT_SET_NO":999,"REV_AT_EPOCH":23348,"BSTAR":0.000084203907,"MEAN_MOTION_DOT":4.6e-7,"MEAN_MOTION_DDOT":0},{"OBJECT_NAME":"ONEWEB-0344","OBJECT_ID":"2021-083AA","EPOCH":"2026-07-13T07:47:54.332160","CLASSIFICATION_TYPE":"U","MEAN_MOTION":13.13469125,"ECCENTRICITY":0.00022455,"INCLINATION":87.8976,"RA_OF_ASC_NODE":315.0364,"ARG_OF_PERICENTER":93.1591,"MEAN_ANOMALY":266.9795,"EPHEMERIS_TYPE":0,"NORAD_CAT_ID":49210,"ELEMENT_SET_NO":999,"REV_AT_EPOCH":23432,"BSTAR":0.00085247922,"MEAN_MOTION_DOT":0.00000324,"MEAN_MOTION_DDOT":0},{"OBJECT_NAME":"ONEWEB-0345","OBJECT_ID":"2021-083AB","EPOCH":"2026-07-13T07:35:43.967904","CLASSIFICATION_TYPE":"U","MEAN_MOTION":13.13469933,"ECCENTRICITY":0.00022231,"INCLINATION":87.8983,"RA_OF_ASC_NODE":315.0234,"ARG_OF_PERICENTER":95.569,"MEAN_ANOMALY":264.5692,"EPHEMERIS_TYPE":0,"NORAD_CAT_ID":49211,"ELEMENT_SET_NO":999,"REV_AT_EPOCH":23433,"BSTAR":0.00068995182,"MEAN_MOTION_DOT":0.00000265,"MEAN_MOTION_DDOT":0},{"OBJECT_NAME":"ONEWEB-0346","OBJECT_ID":"2021-083AC","EPOCH":"2026-07-13T07:44:42.548352","CLASSIFICATION_TYPE":"U","MEAN_MOTION":13.18687712,"ECCENTRICITY":0.00015633,"INCLINATION":87.9177,"RA_OF_ASC_NODE":330.2583,"ARG_OF_PERICENTER":77.9718,"MEAN_ANOMALY":282.1589,"EPHEMERIS_TYPE":0,"NORAD_CAT_ID":49212,"ELEMENT_SET_NO":999,"REV_AT_EPOCH":23342,"BSTAR":-0.000043559798,"MEAN_MOTION_DOT":-4e-8,"MEAN_MOTION_DDOT":0},{"OBJECT_NAME":"ONEWEB-0348","OBJECT_ID":"2021-083AD","EPOCH":"2026-07-13T04:10:19.664544","CLASSIFICATION_TYPE":"U","MEAN_MOTION":13.20771809,"ECCENTRICITY":0.00021243,"INCLINATION":87.9191,"RA_OF_ASC_NODE":269.2629,"ARG_OF_PERICENTER":83.6531,"MEAN_ANOMALY":276.4844,"EPHEMERIS_TYPE":0,"NORAD_CAT_ID":49213,"ELEMENT_SET_NO":999,"REV_AT_EPOCH":24024,"BSTAR":-0.000071633651,"MEAN_MOTION_DOT":-1.6e-7,"MEAN_MOTION_DDOT":0},{"OBJECT_NAME":"ONEWEB-0350","OBJECT_ID":"2021-083AE","EPOCH":"2026-07-12T19:14:52.052640","CLASSIFICATION_TYPE":"U","MEAN_MOTION":13.13470978,"ECCENTRICITY":0.00016136,"INCLINATION":87.8988,"RA_OF_ASC_NODE":315.1296,"ARG_OF_PERICENTER":138.953,"MEAN_ANOMALY":221.1721,"EPHEMERIS_TYPE":0,"NORAD_CAT_ID":49214,"ELEMENT_SET_NO":999,"REV_AT_EPOCH":23429,"BSTAR":0.000410186,"MEAN_MOTION_DOT":0.00000163,"MEAN_MOTION_DDOT":0},{"OBJECT_NAME":"ONEWEB-0351","OBJECT_ID":"2021-083AF","EPOCH":"2026-07-13T04:00:21.858624","CLASSIFICATION_TYPE":"U","MEAN_MOTION":13.20828055,"ECCENTRICITY":0.00036133,"INCLINATION":87.9174,"RA_OF_ASC_NODE":269.2639,"ARG_OF_PERICENTER":116.6576,"MEAN_ANOMALY":243.4928,"EPHEMERIS_TYPE":0,"NORAD_CAT_ID":49215,"ELEMENT_SET_NO":999,"REV_AT_EPOCH":24020,"BSTAR":0.0021761112,"MEAN_MOTION_DOT":0.00000899,"MEAN_MOTION_DDOT":0},{"OBJECT_NAME":"ONEWEB-0352","OBJECT_ID":"2021-083AG","EPOCH":"2026-07-13T07:21:06.160320","CLASSIFICATION_TYPE":"U","MEAN_MOTION":13.13469798,"ECCENTRICITY":0.0002253,"INCLINATION":87.8972,"RA_OF_ASC_NODE":315.0352,"ARG_OF_PERICENTER":109.5159,"MEAN_ANOMALY":250.6213,"EPHEMERIS_TYPE":0,"NORAD_CAT_ID":49216,"ELEMENT_SET_NO":999,"REV_AT_EPOCH":23445,"BSTAR":-0.000070001133,"MEAN_MOTION_DOT":-1.3e-7,"MEAN_MOTION_DDOT":0},{"OBJECT_NAME":"ONEWEB-0354","OBJECT_ID":"2021-083AH","EPOCH":"2026-07-13T04:39:24.706080","CLASSIFICATION_TYPE":"U","MEAN_MOTION":13.20770136,"ECCENTRICITY":0.00022223,"INCLINATION":87.9181,"RA_OF_ASC_NODE":269.258,"ARG_OF_PERICENTER":89.4028,"MEAN_ANOMALY":270.736,"EPHEMERIS_TYPE":0,"NORAD_CAT_ID":49217,"ELEMENT_SET_NO":999,"REV_AT_EPOCH":24024,"BSTAR":-0.00024799231,"MEAN_MOTION_DOT":-8.8e-7,"MEAN_MOTION_DDOT":0},{"OBJECT_NAME":"ONEWEB-0355","OBJECT_ID":"2021-083AJ","EPOCH":"2026-07-09T07:09:49.844448","CLASSIFICATION_TYPE":"U","MEAN_MOTION":13.13300713,"ECCENTRICITY":0.00020436,"INCLINATION":87.897,"RA_OF_ASC_NODE":315.832,"ARG_OF_PERICENTER":101.5704,"MEAN_ANOMALY":258.5654,"EPHEMERIS_TYPE":0,"NORAD_CAT_ID":49218,"ELEMENT_SET_NO":999,"REV_AT_EPOCH":23380,"BSTAR":0.00092726532,"MEAN_MOTION_DOT":0.00000351,"MEAN_MOTION_DDOT":0},{"OBJECT_NAME":"ONEWEB-0357","OBJECT_ID":"2021-083AK","EPOCH":"2026-07-12T17:40:00.369696","CLASSIFICATION_TYPE":"U","MEAN_MOTION":13.20769678,"ECCENTRICITY":0.0002221,"INCLINATION":87.9199,"RA_OF_ASC_NODE":269.3404,"ARG_OF_PERICENTER":105.395,"MEAN_ANOMALY":254.7428,"EPHEMERIS_TYPE":0,"NORAD_CAT_ID":49219,"ELEMENT_SET_NO":999,"REV_AT_EPOCH":24018,"BSTAR":0.000067980211,"MEAN_MOTION_DOT":4.1e-7,"MEAN_MOTION_DDOT":0},{"OBJECT_NAME":"ONEWEB-0332","OBJECT_ID":"2021-090A","EPOCH":"2026-07-13T06:01:19.458624","CLASSIFICATION_TYPE":"U","MEAN_MOTION":13.14503181,"ECCENTRICITY":0.00019679,"INCLINATION":87.897,"RA_OF_ASC_NODE":284.5155,"ARG_OF_PERICENTER":111.1808,"MEAN_ANOMALY":248.9532,"EPHEMERIS_TYPE":0,"NORAD_CAT_ID":49279,"ELEMENT_SET_NO":999,"REV_AT_EPOCH":23100,"BSTAR":0.0001557794,"MEAN_MOTION_DOT":7.1e-7,"MEAN_MOTION_DDOT":0},{"OBJECT_NAME":"ONEWEB-0347","OBJECT_ID":"2021-090B","EPOCH":"2026-07-13T04:20:00.378816","CLASSIFICATION_TYPE":"U","MEAN_MOTION":13.20769275,"ECCENTRICITY":0.00019102,"INCLINATION":87.9201,"RA_OF_ASC_NODE":269.2588,"ARG_OF_PERICENTER":103.9458,"MEAN_ANOMALY":256.1888,"EPHEMERIS_TYPE":0,"NORAD_CAT_ID":49280,"ELEMENT_SET_NO":999,"REV_AT_EPOCH":23447,"BSTAR":-0.000057119026,"MEAN_MOTION_DOT":-1e-7,"MEAN_MOTION_DDOT":0}]}
